P/2017 Y3 (Leonard),e,27.6268,154.0119,67.3423,9.795480,0.0321489,0.86957793,84.4749,04/18.0/2025,2000,g 16.5,4.0
# From MPEC 2021-P47
C/2018 A3 (ATLAS),e,139.6032,194.3522,86.5007,345.1081,0.0001537,0.99045922,0.0000,01/08.7232/2019,2000,g  8.5,4.0
# From MPC109147
P/2018 A5 (PANSTARRS),e,23.6242,87.7836,359.5489,5.624411,0.0738905,0.52448942,203.7819,04/18.0/2025,2000,g 15.0,4.0
# From MPEC 2024-JU4
C/2018 A6 (Gibbs),e,77.1544,340.4530,264.2729,14.99799,0.0169689,0.79882918,35.7828,04/18.0/2025,2000,g  9.0,4.0
# From MPC114601
P/2018 C1 (Lemmon-Read),e,5.1019,270.2051,235.7937,5.649561,0.0733976,0.53264075,191.5482,04/18.0/2025,2000,g 13.5,4.0
# From MPEC 2022-M88
C/2018 DO4 (Lemmon),e,160.4461,251.3927,176.4135,25.51610,0.0076469,0.90510391,15.8362,04/18.0/2025,2000,g 11.0,4.0
# From MPEC 2021-R75
C/2018 F1 (Grauer),e,46.1677,177.3179,71.4354,217.6835,0.0003069,0.98625560,0.0000,12/10.1555/2018,2000,g 11.5,4.0
# From MPEC 2023-A50
C/2018 F4 (PANSTARRS),e,78.1314,26.5354,263.1972,1787,0.0000130,0.99807023,0.0000,11/30.9569/2019,2000,g 11.0,6.0
# From MPEC 2021-Y10
C/2018 F4-A,e,78.1316,26.5356,263.1940,1739,0.0000136,0.99801728,0.0000,11/30.9450/2019,2000,g 11.0,6.0
# From MPEC 2023-D41
C/2018 F4-B,e,78.1325,26.5351,263.1797,1821,0.0000127,0.99810604,0.0000,11/30.8818/2019,2000,g 11.0,6.0
# From MPC114602
P/2018 H2 (PANSTARRS),e,7.4180,67.9835,119.2224,4.407504,0.1065160,0.53991162,285.5124,04/18.0/2025,2000,g 16.6,2.0
# From MPEC 2021-R75
C/2018 KJ3 (Lemmon),e,136.6209,91.6950,217.5400,706.3743,0.0000525,0.99487858,0.0000,09/08.8677/2019,2000,g 12.2,2.0
# From MPEC 2025-H10
P/2018 L1 (PANSTARRS),e,10.5747,268.5825,17.9543,3.657706,0.1408935,0.48128364,331.5950,04/18.0/2025,2000,g 15.0,4.0
# From MPEC 2021-P47
C/2018 L2 (ATLAS),e,67.2124,242.9880,56.3464,236.6796,0.0002707,0.99272654,0.0000,11/29.6503/2018,2000,g 10.0,4.0
# From MPC114603
P/2018 L4 (PANSTARRS),e,26.5926,145.2233,140.5086,4.948622,0.0895319,0.65824694,220.0764,04/18.0/2025,2000,g 17.5,4.0
# From MPEC 2022-YN2
C/2018 N2 (ASASSN),h,11/12.0789/2019,77.5027,24.5234,25.3208,1.001995,3.135231,2000,6.0,4.0
# From MPC114603
P/2018 P4 (PANSTARRS),e,23.0800,353.1577,8.5164,6.695524,0.0568889,0.44912330,133.9025,04/18.0/2025,2000,g 12.0,4.0
# From MPEC 2021-P47
C/2018 P5 (PANSTARRS),e,7.2464,216.2681,132.0374,12.84581,0.0214073,0.64167089,48.0183,04/18.0/2025,2000,g 11.0,4.0
# From MPC118841
C/2018 R3 (Lemmon),e,69.6892,324.3742,112.7965,1780,0.0000131,0.99927856,0.0000,06/08.0377/2019,2000,g  9.5,4.0
# From MPC114603
C/2018 R5 (Lemmon),e,103.6876,171.2632,178.2728,22.98133,0.0089463,0.84169452,20.4801,04/18.0/2025,2000,g 11.5,4.0
# From MPEC 2022-QC6
C/2018 S2 (TESS),e,64.1106,85.1075,290.9447,14.37003,0.0180933,0.61793948,42.6181,04/18.0/2025,2000,g  7.5,4.0
# From MPEC 2024-JU4
C/2018 U1 (Lemmon),h,11/02.2162/2021,108.3257,75.5148,180.3612,1.000235,4.986448,2000,5.0,4.0
# From MPC114604
C/2018 V1 (Machholz-Fujikawa-Iwamoto),h,12/04.0253/2018,144.1981,129.5866,89.5645,1.000458,0.390921,2000,12.0,4.0
# From MPC115884
C/2018 V2 (ATLAS),e,159.1620,357.2136,319.2790,25.24334,0.0077711,0.90126495,18.1435,04/18.0/2025,2000,g 15.0,4.0
# From MPEC 2025-A40
P/2018 VN2 (Leonard),e,18.2574,226.4389,138.9256,4.061237,0.1204250,0.47817749,301.6264,04/18.0/2025,2000,g 15.0,4.0
# From MPEC 2025-A40
A/2018 V3,e,164.9151,308.8165,3.5804,127.4368,0.0006851,0.98955944,0.0000,09/10.4536/2019,2000,g 15.7,2.0
# From MPEC 2022-M21
C/2018 V4 (Africano),e,69.0436,78.2456,0.0901,215.4936,0.0003116,0.98513602,0.0000,03/02.3850/2019,2000,g 12.5,4.0
# From MPEC 2021-P47
P/2018 V5 (Trujillo-Sheppard),e,10.5783,171.2953,260.8741,8.980374,0.0366237,0.47581681,87.3785,04/18.0/2025,2000,g 12.5,4.0
# From MPEC 2021-P47
C/2018 W1 (Catalina),e,83.4014,233.6373,251.1687,21.73938,0.0097237,0.93781652,21.0636,04/18.0/2025,2000,g 15.5,2.0
# From MPEC 2021-P47
C/2018 W2 (Africano),h,09/05.6744/2019,116.5440,181.9697,158.2332,1.000936,1.465537,2000,9.5,4.0
# From MPEC 2023-M14
A/2018 W3,e,104.8387,251.6891,313.8721,704.0161,0.0000528,0.99391688,0.0000,04/13.1581/2021,2000,g 10.7,2.0
# From MPC119996
C/2018 X2 (Fitzsimmons),e,23.1053,340.6447,161.9991,140.6622,0.0005908,0.98499087,0.0000,07/09.7322/2019,2000,g 12.0,4.0
# From MPC114604
C/2018 X3 (PANSTARRS),e,43.4266,78.7960,359.8598,12.41029,0.0225440,0.78291573,51.8149,04/18.0/2025,2000,g 14.5,4.0
# From MPEC 2024-A43
C/2018 Y1 (Iwamoto),e,160.4789,147.3432,357.8649,126.3533,0.0006939,0.98976981,0.0000,02/03.4858/2019,2000,g 11.5,4.0
# From MPC114605
P/2018 Y2 (Africano),e,11.6949,297.1193,162.3786,7.456950,0.0484019,0.48002099,111.1064,04/18.0/2025,2000,g 11.5,4.0
# From MPC114605
P/2019 A1 (PANSTARRS),e,13.7711,312.2120,150.7811,5.112554,0.0852604,0.57028092,202.7065,04/18.0/2025,2000,g 16.0,4.0
# From MPEC 2021-P47
P/2019 A2 (ATLAS),e,14.8728,139.3693,323.9491,5.710489,0.0722261,0.38326667,168.7878,04/18.0/2025,2000,g 10.5,4.0
# From MPEC 2022-M21
P/2019 A3 (PANSTARRS),e,15.3573,31.2934,325.6798,3.146793,0.1765639,0.26736198,72.6023,04/18.0/2025,2000,g 16.0,4.0
# From MPEC 2022-L66
P/2019 A4 (PANSTARRS),e,13.3057,119.3538,343.2259,2.614548,0.2331358,0.08740902,180.7657,04/18.0/2025,2000,g 15.0,4.0
# From MPEC 2021-P47
C/2019 A5 (PANSTARRS),e,67.5505,146.5184,355.8178,21.50052,0.0098862,0.70641709,21.1769,04/18.0/2025,2000,g  9.5,4.0
# From MPC114605
P/2019 A6 (Lemmon-PANSTARRS),e,33.2974,280.1741,156.2472,5.356790,0.0794963,0.64037916,192.3887,04/18.0/2025,2000,g 16.0,4.0
# From MPEC 2025-GB9
P/2019 A8 (PANSTARRS),e,2.3015,111.5291,46.6858,3.415644,0.1561332,0.37588416,2.6640,04/18.0/2025,2000,g 16.0,4.0
# From MPC118842
C/2019 A9 (PANSTARRS),e,84.3964,278.4692,237.8813,39.29505,0.0040013,0.96368789,8.3702,04/18.0/2025,2000,g 15.0,4.0
# From MPEC 2022-L66
C/2019 B1 (Africano),e,123.4888,290.2371,174.8202,139.4941,0.0005982,0.98850801,0.0000,03/18.2720/2019,2000,g 16.0,4.0
# From MPC115885
P/2019 B2 (Groeller),e,16.9534,175.6637,0.6199,3.927551,0.1266255,0.35774057,274.2201,04/18.0/2025,2000,g 14.5,4.0
# From MPEC 2024-JU4
C/2019 B3 (PANSTARRS),e,66.5988,358.4037,263.9943,3793,0.0000042,0.99819930,0.0000,01/19.6309/2021,2000,g  5.5,4.0
# From MPEC 2021-P47
C/2019 C1 (ATLAS),e,36.0397,212.3727,319.0142,683.3031,0.0000552,0.99038853,0.0000,05/04.4803/2020,2000,g 10.0,4.0
# From MPEC 2022-O08
C/2019 D1 (Flewelling),e,34.0079,231.6623,70.7217,136.8872,0.0006154,0.98836956,0.0000,05/08.9500/2019,2000,g 13.0,4.0
# From MPC182878
C/2019 E3 (ATLAS),e,84.3130,347.1984,280.7175,5315,0.0000025,0.99805973,0.0000,11/15.5967/2023,2000,g  2.5,4.0
# From MPEC 2024-GJ3
C/2019 F1 (ATLAS-Africano),h,06/21.2556/2021,54.2489,38.6639,251.3092,1.000400,3.608509,2000,5.5,4.0
# From MPEC 2025-A40
C/2019 F2 (ATLAS),e,19.3315,175.3510,11.6124,16.55779,0.0146285,0.86473937,29.9785,04/18.0/2025,2000,g 12.0,4.0
# From MPEC 2024-E01
C/2019 G2 (PANSTARRS),e,159.2498,208.2293,82.7674,401.1614,0.0001227,0.99425412,0.0000,12/06.5718/2019,2000,g 15.0,4.0
# From MPEC 2022-VC5
A/2019 G3,e,156.8077,49.8971,161.7406,17.12036,0.0139134,0.83430555,32.3788,04/18.0/2025,2000,g 17.1,2.0
# From MPC114607
P/2019 GG21 (PANSTARRS),e,6.0838,340.5650,208.5893,7.468594,0.0482887,0.47167098,104.8022,04/18.0/2025,2000,g 12.0,4.0
# From MPEC 2022-M21
C/2019 H1 (NEOWISE),e,104.3579,269.3119,19.2477,229.1747,0.0002841,0.99197051,0.0000,04/26.9868/2019,2000,g 15.5,4.0
# From MPEC 2023-A50
C/2019 J1 (Lemmon),e,24.5227,98.2348,167.5797,66.57207,0.0018145,0.96271173,3.9993,04/18.0/2025,2000,g 12.0,4.0
# From MPEC 2021-R75
C/2019 J2 (Palomar),e,105.2188,25.4743,98.5581,160.2628,0.0004858,0.98930079,0.0000,07/21.1177/2019,2000,g 13.0,4.0
# From MPC117071
C/2019 J3 (ATLAS),e,131.2943,270.6551,16.4992,46912,0.0000001,0.99994965,0.0000,08/02.0230/2019,2000,g 13.5,4.0
# From MPEC 2022-M21
C/2019 JU6 (ATLAS),e,148.3030,21.6964,94.7895,18924,0.0000004,0.99989260,0.0000,06/02.8915/2019,2000,g 14.5,4.0
# From MPEC 2022-O08
C/2019 K1 (ATLAS),e,87.0162,73.3097,265.7775,3066,0.0000058,0.99934079,0.0000,02/11.0389/2020,2000,g 10.0,4.0
# From MPC119997
C/2019 K4 (Ye),e,105.2891,180.2855,140.0173,1622,0.0000151,0.99859702,0.0000,06/15.2808/2019,2000,g 12.5,4.0
# From MPEC 2021-P47
C/2019 K5 (Young),e,15.2946,177.2687,175.1457,168.6364,0.0004501,0.98781771,0.0000,06/21.4823/2019,2000,g 13.0,4.0
# From MPEC 2021-P47
C/2019 K6 (PANSTARRS),e,132.3877,42.9830,187.4398,950.8533,0.0000336,0.99588001,0.0000,05/18.6862/2020,2000,g 11.5,4.0
# From MPEC 2024-GJ3
C/2019 K7 (Smith),h,06/17.2078/2020,103.4808,308.0329,27.3639,1.000428,4.474712,2000,6.0,4.0
# From MPEC 2021-R75
C/2019 K8 (ATLAS),e,93.0521,290.9915,85.3704,1717,0.0000138,0.99813801,0.0000,07/20.3394/2019,2000,g 11.5,4.0
# From MPEC 2023-A50
C/2019 L1 (PANSTARRS),e,9.9737,254.4271,50.0181,9.819681,0.0320301,0.70415474,66.6416,04/18.0/2025,2000,g 13.5,4.0
# From MPC115886
C/2019 L2 (NEOWISE),e,152.1548,12.5791,18.8524,25.14643,0.0078161,0.93551319,17.2445,04/18.0/2025,2000,g 16.0,4.0
# From MPEC 2024-GJ3
P/2019 LD2 (ATLAS),e,11.6047,178.8799,116.6308,5.172995,0.0837705,0.13043026,159.3732,04/18.0/2025,2000,g  8.5,4.0
# From MPEC 2025-A40
C/2019 L3 (ATLAS),h,01/10.0921/2022,48.3455,290.7202,171.7383,1.003080,3.558064,2000,4.5,4.0
# From MPEC 2024-YC7
P/2019 LM4 (Palomar),e,36.4172,72.8916,68.2057,5.702653,0.0723750,0.58607681,154.1012,04/18.0/2025,2000,g  9.5,4.0
# From MPC118095
C/2019 LB7 (Kleyna),e,164.2803,3.9918,336.7659,35.01305,0.0047573,0.92873266,10.5307,04/18.0/2025,2000,g 17.0,4.0
# From MPC118095
C/2019 M3 (ATLAS),e,99.6404,155.0406,87.9348,4920,0.0000029,0.99950717,0.0000,12/31.3851/2018,2000,g 12.2,4.0
# From MPEC 2023-JA2
C/2019 M4 (TESS),h,09/09.8814/2019,65.6878,52.6439,260.3460,1.000629,9.191063,2000,5.0,4.0
# From MPEC 2023-C45
C/2019 N1 (ATLAS),e,82.5174,13.5200,193.3465,983.7586,0.0000319,0.99826868,0.0000,11/30.5663/2020,2000,g  7.5,4.0
# From MPEC 2023-CD8
A/2019 N2,e,89.3229,276.2215,347.0808,1167,0.0000247,0.99833737,0.0000,08/22.4739/2019,2000,g 12.5,2.0
# From MPEC 2022-A21
